{
  "type": "FeatureCollection",
  "name": "cryolens_aoi_newfoundland_labrador",
  "features": [{
    "type": "Feature",
    "properties": {
      "id": "newfoundland_labrador_marine",
      "name": "Newfoundland and Labrador shelf study area",
      "description": "Hand-defined research polygon covering the Labrador coastal corridor, Northeast Newfoundland Shelf and Grand Banks. Not a provincial boundary, EEZ, navigation chart or C-CORE operational area. Land and coastal buffers are excluded separately. Analysis is clipped at pixel centres.",
      "bbox": [-60.5, 42.5, -44.0, 60.5],
      "source": "CryoLens study design, 2026-09-05; not an authoritative boundary"
    },
    "geometry": {
      "type": "Polygon",
      "coordinates": [[[-60.5,60.5],[-56.0,60.5],[-51.0,55.0],[-48.0,52.0],[-44.0,48.0],[-44.0,45.0],[-49.0,42.5],[-54.5,44.0],[-58.5,47.0],[-59.5,50.5],[-56.5,52.0],[-60.5,56.0],[-60.5,60.5]]]
    }
  }]
}
